{
  "norad_id": 61576,
  "name": "STARLINK-11372 [DTC]",
  "history": [
    {
      "epoch": "2026-03-28T17:45:53.882208Z",
      "apogee_km": 360.8192302681782,
      "perigee_km": 358.6039604070038,
      "latitude_deg": 1.5075582900413703e-05,
      "longitude_deg": 109.61848488506533,
      "height_km": 360.93483219171725,
      "semi_major_axis_km": 6737.848595337591,
      "eccentricity": 0.00016439,
      "inclination_deg": 53.1609,
      "raan_deg": 202.2493,
      "arg_perigee_deg": 106.2606,
      "mean_anomaly_deg": 253.8593,
      "mean_motion_rev_day": 15.69715296
    }
  ]
}